GLOBALSTAR M062         
1 26082U 00008B   26088.17875150 -.00000112  00000+0 -10086-3 0  9997
2 26082  51.9876 337.6949 0007568   7.5689 160.7874 12.43483814532076
GLOBALSTAR M060         
1 26083U 00008C   26088.17155653  .00000112  00000+0  20155-2 0  9992
2 26083  52.0049 338.0459 0003250 359.5980 163.9527 12.17678908187088
GLOBALSTAR M064         
1 26084U 00008D   26087.98762067 -.00000084  00000+0 -93441-5 0  9995
2 26084  52.0022 176.9730 0001460 222.1403 137.9317 11.88543038200960
GLOBALSTAR M065         
1 31571U 07020A   26088.19116163 -.00000043  00000+0  33955-3 0  9993
2 31571  51.9887  78.7889 0009579 218.7494 222.1710 12.62023217869395
GLOBALSTAR M069         
1 31573U 07020C   26088.12228593 -.00000054  00000+0  35278-3 0  9991
2 31573  52.0013 118.7403 0001586 345.5539  48.6197 12.23469919869004
GLOBALSTAR M072         
1 31574U 07020D   26088.05165951 -.00000046  00000+0  52537-3 0  9990
2 31574  51.9947 313.5918 0001611 127.7117  23.0666 11.91656726865424
GLOBALSTAR M071         
1 31576U 07020F   26088.14793979 -.00000004  00000+0  85586-3 0  9993
2 31576  52.0046 152.3191 0000420 319.7995  61.8508 12.18267319529679
GLOBALSTAR M067         
1 32263U 07048A   26087.78873231 -.00000079  00000+0  13286-3 0  9996
2 32263  51.9727 283.1532 0000839 179.0200 194.1015 12.40686001844816
GLOBALSTAR M070         
1 32264U 07048B   26088.12454522 -.00000073  00000+0  17308-3 0  9997
2 32264  51.9777 340.4575 0000925  75.3861  74.6762 12.62332081849651
GLOBALSTAR M066         
1 32265U 07048C   26087.80315860 -.00000074  00000+0  17344-3 0  9994
2 32265  51.9587 288.6746 0004106 226.0161 146.9955 12.30387643850330
GLOBALSTAR M068         
1 32266U 07048D   26088.15626726 -.00000059  00000+0  25057-3 0  9993
2 32266  51.9871 153.5599 0001141  67.9953 314.9266 12.62843312853565
GLOBALSTAR M079         
1 37188U 10054A   26088.09818234 -.00000080  00000+0  13398-3 0  9991
2 37188  52.0067 352.4733 0000621 102.3756  36.5785 12.62264367712439
GLOBALSTAR M074         
1 37189U 10054B   26088.12654735 -.00000082  00000+0  12411-3 0  9997
2 37189  52.0046 351.6655 0000526  69.9364  77.4704 12.62266645713042
GLOBALSTAR M076         
1 37190U 10054C   26088.15331054 -.00000088  00000+0  87495-4 0  9999
2 37190  52.0060 351.7796 0000388  93.4199  56.0689 12.62270942712769
GLOBALSTAR M077         
1 37191U 10054D   26088.18482744 -.00000097  00000+0 -35028-3 0  9991
2 37191  52.0011  22.3911 0000653 146.0958 353.8363 11.68156373711794
GLOBALSTAR M075         
1 37192U 10054E   26088.24458487 -.00000094  00000+0  55359-4 0  9992
2 37192  51.9970  33.5979 0000519  74.0955  70.2227 12.62265113711846
GLOBALSTAR M073         
1 37193U 10054F   26088.00720093 -.00000073  00000+0  17146-3 0  9990
2 37193  52.0071 308.3635 0000687 106.6511  37.4260 12.62265814713807
