[{"OBJECT_NAME":"GLOBALSTAR M062","OBJECT_ID":"2000-008B","EPOCH":"2026-03-29T04:17:24.129600","MEAN_MOTION":12.43483814,"ECCENTRICITY":0.0007568,"INCLINATION":51.9876,"RA_OF_ASC_NODE":337.6949,"ARG_OF_PERICENTER":7.5689,"MEAN_ANOMALY":160.7874,"EPHEMERIS_TYPE":0,"CLASSIFICATION_TYPE":"U","NORAD_CAT_ID":26082,"ELEMENT_SET_NO":999,"REV_AT_EPOCH":53207,"BSTAR":-0.00010086,"MEAN_MOTION_DOT":-1.12e-6,"MEAN_MOTION_DDOT":0},{"OBJECT_NAME":"GLOBALSTAR M060","OBJECT_ID":"2000-008C","EPOCH":"2026-03-29T04:07:02.484192","MEAN_MOTION":12.17678908,"ECCENTRICITY":0.000325,"INCLINATION":52.0049,"RA_OF_ASC_NODE":338.0459,"ARG_OF_PERICENTER":359.598,"MEAN_ANOMALY":163.9527,"EPHEMERIS_TYPE":0,"CLASSIFICATION_TYPE":"U","NORAD_CAT_ID":26083,"ELEMENT_SET_NO":999,"REV_AT_EPOCH":18708,"BSTAR":0.0020155,"MEAN_MOTION_DOT":1.12e-6,"MEAN_MOTION_DDOT":0},{"OBJECT_NAME":"GLOBALSTAR M064","OBJECT_ID":"2000-008D","EPOCH":"2026-03-28T23:42:10.425888","MEAN_MOTION":11.88543038,"ECCENTRICITY":0.000146,"INCLINATION":52.0022,"RA_OF_ASC_NODE":176.973,"ARG_OF_PERICENTER":222.1403,"MEAN_ANOMALY":137.9317,"EPHEMERIS_TYPE":0,"CLASSIFICATION_TYPE":"U","NORAD_CAT_ID":26084,"ELEMENT_SET_NO":999,"REV_AT_EPOCH":20096,"BSTAR":-9.3441e-6,"MEAN_MOTION_DOT":-8.4e-7,"MEAN_MOTION_DDOT":0},{"OBJECT_NAME":"GLOBALSTAR M065","OBJECT_ID":"2007-020A","EPOCH":"2026-03-29T04:35:16.364832","MEAN_MOTION":12.62023217,"ECCENTRICITY":0.0009579,"INCLINATION":51.9887,"RA_OF_ASC_NODE":78.7889,"ARG_OF_PERICENTER":218.7494,"MEAN_ANOMALY":222.171,"EPHEMERIS_TYPE":0,"CLASSIFICATION_TYPE":"U","NORAD_CAT_ID":31571,"ELEMENT_SET_NO":999,"REV_AT_EPOCH":86939,"BSTAR":0.00033955,"MEAN_MOTION_DOT":-4.3e-7,"MEAN_MOTION_DDOT":0},{"OBJECT_NAME":"GLOBALSTAR M069","OBJECT_ID":"2007-020C","EPOCH":"2026-03-29T02:56:05.504352","MEAN_MOTION":12.23469919,"ECCENTRICITY":0.0001586,"INCLINATION":52.0013,"RA_OF_ASC_NODE":118.7403,"ARG_OF_PERICENTER":345.5539,"MEAN_ANOMALY":48.6197,"EPHEMERIS_TYPE":0,"CLASSIFICATION_TYPE":"U","NORAD_CAT_ID":31573,"ELEMENT_SET_NO":999,"REV_AT_EPOCH":86900,"BSTAR":0.00035278,"MEAN_MOTION_DOT":-5.4e-7,"MEAN_MOTION_DDOT":0},{"OBJECT_NAME":"GLOBALSTAR M072","OBJECT_ID":"2007-020D","EPOCH":"2026-03-29T01:14:23.381664","MEAN_MOTION":11.91656726,"ECCENTRICITY":0.0001611,"INCLINATION":51.9947,"RA_OF_ASC_NODE":313.5918,"ARG_OF_PERICENTER":127.7117,"MEAN_ANOMALY":23.0666,"EPHEMERIS_TYPE":0,"CLASSIFICATION_TYPE":"U","NORAD_CAT_ID":31574,"ELEMENT_SET_NO":999,"REV_AT_EPOCH":86542,"BSTAR":0.00052537,"MEAN_MOTION_DOT":-4.6e-7,"MEAN_MOTION_DDOT":0},{"OBJECT_NAME":"GLOBALSTAR M071","OBJECT_ID":"2007-020F","EPOCH":"2026-03-29T03:33:01.997856","MEAN_MOTION":12.18267319,"ECCENTRICITY":4.2e-5,"INCLINATION":52.0046,"RA_OF_ASC_NODE":152.3191,"ARG_OF_PERICENTER":319.7995,"MEAN_ANOMALY":61.8508,"EPHEMERIS_TYPE":0,"CLASSIFICATION_TYPE":"U","NORAD_CAT_ID":31576,"ELEMENT_SET_NO":999,"REV_AT_EPOCH":52967,"BSTAR":0.00085586,"MEAN_MOTION_DOT":-4.0e-8,"MEAN_MOTION_DDOT":0},{"OBJECT_NAME":"GLOBALSTAR M067","OBJECT_ID":"2007-048A","EPOCH":"2026-03-28T18:55:46.471584","MEAN_MOTION":12.40686001,"ECCENTRICITY":8.398e-5,"INCLINATION":51.9727,"RA_OF_ASC_NODE":283.1532,"ARG_OF_PERICENTER":179.02,"MEAN_ANOMALY":194.1015,"EPHEMERIS_TYPE":0,"CLASSIFICATION_TYPE":"U","NORAD_CAT_ID":32263,"ELEMENT_SET_NO":999,"REV_AT_EPOCH":84481,"BSTAR":0.00013285794,"MEAN_MOTION_DOT":-7.9e-7,"MEAN_MOTION_DDOT":0},{"OBJECT_NAME":"GLOBALSTAR M070","OBJECT_ID":"2007-048B","EPOCH":"2026-03-29T02:59:20.707008","MEAN_MOTION":12.62332081,"ECCENTRICITY":9.25e-5,"INCLINATION":51.9777,"RA_OF_ASC_NODE":340.4575,"ARG_OF_PERICENTER":75.3861,"MEAN_ANOMALY":74.6762,"EPHEMERIS_TYPE":0,"CLASSIFICATION_TYPE":"U","NORAD_CAT_ID":32264,"ELEMENT_SET_NO":999,"REV_AT_EPOCH":84965,"BSTAR":0.00017308,"MEAN_MOTION_DOT":-7.3e-7,"MEAN_MOTION_DDOT":0},{"OBJECT_NAME":"GLOBALSTAR M066","OBJECT_ID":"2007-048C","EPOCH":"2026-03-28T19:16:32.903040","MEAN_MOTION":12.30387643,"ECCENTRICITY":0.00041066,"INCLINATION":51.9587,"RA_OF_ASC_NODE":288.6746,"ARG_OF_PERICENTER":226.0161,"MEAN_ANOMALY":146.9955,"EPHEMERIS_TYPE":0,"CLASSIFICATION_TYPE":"U","NORAD_CAT_ID":32265,"ELEMENT_SET_NO":999,"REV_AT_EPOCH":85033,"BSTAR":0.00017344448,"MEAN_MOTION_DOT":-7.4e-7,"MEAN_MOTION_DDOT":0},{"OBJECT_NAME":"GLOBALSTAR M068","OBJECT_ID":"2007-048D","EPOCH":"2026-03-29T03:45:01.491264","MEAN_MOTION":12.62843312,"ECCENTRICITY":0.0001141,"INCLINATION":51.9871,"RA_OF_ASC_NODE":153.5599,"ARG_OF_PERICENTER":67.9953,"MEAN_ANOMALY":314.9266,"EPHEMERIS_TYPE":0,"CLASSIFICATION_TYPE":"U","NORAD_CAT_ID":32266,"ELEMENT_SET_NO":999,"REV_AT_EPOCH":85356,"BSTAR":0.00025057,"MEAN_MOTION_DOT":-5.9e-7,"MEAN_MOTION_DDOT":0},{"OBJECT_NAME":"GLOBALSTAR M079","OBJECT_ID":"2010-054A","EPOCH":"2026-03-29T02:21:22.954176","MEAN_MOTION":12.62264367,"ECCENTRICITY":6.21e-5,"INCLINATION":52.0067,"RA_OF_ASC_NODE":352.4733,"ARG_OF_PERICENTER":102.3756,"MEAN_ANOMALY":36.5785,"EPHEMERIS_TYPE":0,"CLASSIFICATION_TYPE":"U","NORAD_CAT_ID":37188,"ELEMENT_SET_NO":999,"REV_AT_EPOCH":71243,"BSTAR":0.00013398,"MEAN_MOTION_DOT":-8.0e-7,"MEAN_MOTION_DDOT":0},{"OBJECT_NAME":"GLOBALSTAR M074","OBJECT_ID":"2010-054B","EPOCH":"2026-03-29T03:02:13.691040","MEAN_MOTION":12.62266645,"ECCENTRICITY":5.26e-5,"INCLINATION":52.0046,"RA_OF_ASC_NODE":351.6655,"ARG_OF_PERICENTER":69.9364,"MEAN_ANOMALY":77.4704,"EPHEMERIS_TYPE":0,"CLASSIFICATION_TYPE":"U","NORAD_CAT_ID":37189,"ELEMENT_SET_NO":999,"REV_AT_EPOCH":71304,"BSTAR":0.00012411,"MEAN_MOTION_DOT":-8.2e-7,"MEAN_MOTION_DDOT":0},{"OBJECT_NAME":"GLOBALSTAR M076","OBJECT_ID":"2010-054C","EPOCH":"2026-03-29T03:40:46.030656","MEAN_MOTION":12.62270942,"ECCENTRICITY":3.88e-5,"INCLINATION":52.006,"RA_OF_ASC_NODE":351.7796,"ARG_OF_PERICENTER":93.4199,"MEAN_ANOMALY":56.0689,"EPHEMERIS_TYPE":0,"CLASSIFICATION_TYPE":"U","NORAD_CAT_ID":37190,"ELEMENT_SET_NO":999,"REV_AT_EPOCH":71276,"BSTAR":8.7495e-5,"MEAN_MOTION_DOT":-8.8e-7,"MEAN_MOTION_DDOT":0},{"OBJECT_NAME":"GLOBALSTAR M077","OBJECT_ID":"2010-054D","EPOCH":"2026-03-29T04:26:09.090816","MEAN_MOTION":11.68156373,"ECCENTRICITY":6.53e-5,"INCLINATION":52.0011,"RA_OF_ASC_NODE":22.3911,"ARG_OF_PERICENTER":146.0958,"MEAN_ANOMALY":353.8363,"EPHEMERIS_TYPE":0,"CLASSIFICATION_TYPE":"U","NORAD_CAT_ID":37191,"ELEMENT_SET_NO":999,"REV_AT_EPOCH":71179,"BSTAR":-0.00035028,"MEAN_MOTION_DOT":-9.7e-7,"MEAN_MOTION_DDOT":0},{"OBJECT_NAME":"GLOBALSTAR M075","OBJECT_ID":"2010-054E","EPOCH":"2026-03-29T05:52:12.132768","MEAN_MOTION":12.62265113,"ECCENTRICITY":5.19e-5,"INCLINATION":51.997,"RA_OF_ASC_NODE":33.5979,"ARG_OF_PERICENTER":74.0955,"MEAN_ANOMALY":70.2227,"EPHEMERIS_TYPE":0,"CLASSIFICATION_TYPE":"U","NORAD_CAT_ID":37192,"ELEMENT_SET_NO":999,"REV_AT_EPOCH":71184,"BSTAR":5.5359e-5,"MEAN_MOTION_DOT":-9.4e-7,"MEAN_MOTION_DDOT":0},{"OBJECT_NAME":"GLOBALSTAR M073","OBJECT_ID":"2010-054F","EPOCH":"2026-03-29T00:10:22.160352","MEAN_MOTION":12.62265814,"ECCENTRICITY":6.87e-5,"INCLINATION":52.0071,"RA_OF_ASC_NODE":308.3635,"ARG_OF_PERICENTER":106.6511,"MEAN_ANOMALY":37.426,"EPHEMERIS_TYPE":0,"CLASSIFICATION_TYPE":"U","NORAD_CAT_ID":37193,"ELEMENT_SET_NO":999,"REV_AT_EPOCH":71380,"BSTAR":0.00017146,"MEAN_MOTION_DOT":-7.3e-7,"MEAN_MOTION_DDOT":0}]
